{
  "type": "FeatureCollection",
  "features": [
    {
      "type": "Feature",
      "properties": {
        "norad_id": 41948,
        "name": "CARTOSAT-2D",
        "group": "resource",
        "lat": -12.198535031617343,
        "lon": 59.3028112487126,
        "alt_km": 515.0508874307516,
        "timestamp": "2025-12-26T09:30:53.285376+00:00",
        "meta_object_name": "CARTOSAT-2D",
        "meta_object_id": "2017-008A",
        "meta_epoch": "2025-12-26T04:49:35.356224",
        "meta_mean_motion": 15.19196824,
        "meta_eccentricity": 0.0005454,
        "meta_inclination": 97.4367,
        "meta_ra_of_asc_node": 57.4924,
        "meta_arg_of_pericenter": 115.537,
        "meta_mean_anomaly": 244.6429,
        "meta_ephemeris_type": 0,
        "meta_classification_type": "U",
        "meta_norad_cat_id": 41948,
        "meta_element_set_no": 999,
        "meta_rev_at_epoch": 49131,
        "meta_bstar": 0.00016943,
        "meta_mean_motion_dot": 3.498e-05,
        "meta_mean_motion_ddot": 0,
        "tle_line1": "1 41948U 17008A   25360.20110366  .00003498  00000+0  16943-3 0  9996",
        "tle_line2": "2 41948  97.4367  57.4924 0005454 115.5370 244.6429 15.19196824491310"
      },
      "geometry": {
        "type": "Point",
        "coordinates": [
          59.3028112487126,
          -12.198535031617343
        ]
      }
    },
    {
      "type": "Feature",
      "properties": {
        "norad_id": 42063,
        "name": "SENTINEL-2B",
        "group": "resource",
        "lat": -69.41399423802218,
        "lon": 96.31963885615636,
        "alt_km": 797.0491845708675,
        "timestamp": "2025-12-26T09:30:53.285386+00:00",
        "meta_object_name": "SENTINEL-2B",
        "meta_object_id": "2017-013A",
        "meta_epoch": "2025-12-26T03:08:02.055840",
        "meta_mean_motion": 14.30815669,
        "meta_eccentricity": 0.0001171,
        "meta_inclination": 98.5696,
        "meta_ra_of_asc_node": 72.3876,
        "meta_arg_of_pericenter": 90.1678,
        "meta_mean_anomaly": 269.9639,
        "meta_ephemeris_type": 0,
        "meta_classification_type": "U",
        "meta_norad_cat_id": 42063,
        "meta_element_set_no": 999,
        "meta_rev_at_epoch": 45989,
        "meta_bstar": 3.3853e-05,
        "meta_mean_motion_dot": 4.5e-07,
        "meta_mean_motion_ddot": 0,
        "tle_line1": "1 42063U 17013A   25360.13057935  .00000045  00000+0  33853-4 0  9990",
        "tle_line2": "2 42063  98.5696  72.3876 0001171  90.1678 269.9639 14.30815669459896"
      },
      "geometry": {
        "type": "Point",
        "coordinates": [
          96.31963885615636,
          -69.41399423802218
        ]
      }
    },
    {
      "type": "Feature",
      "properties": {
        "norad_id": 42767,
        "name": "CARTOSAT-2E",
        "group": "resource",
        "lat": -75.23563265109902,
        "lon": -151.98267604099928,
        "alt_km": 515.4619380545782,
        "timestamp": "2025-12-26T09:30:53.285397+00:00",
        "meta_object_name": "CARTOSAT-2E",
        "meta_object_id": "2017-036C",
        "meta_epoch": "2025-12-26T05:13:28.536096",
        "meta_mean_motion": 15.19204925,
        "meta_eccentricity": 0.0002687,
        "meta_inclination": 97.4536,
        "meta_ra_of_asc_node": 57.627,
        "meta_arg_of_pericenter": 171.3626,
        "meta_mean_anomaly": 188.7655,
        "meta_ephemeris_type": 0,
        "meta_classification_type": "U",
        "meta_norad_cat_id": 42767,
        "meta_element_set_no": 999,
        "meta_rev_at_epoch": 47188,
        "meta_bstar": 0.00023548,
        "meta_mean_motion_dot": 4.889e-05,
        "meta_mean_motion_ddot": 0,
        "tle_line1": "1 42767U 17036C   25360.21769139  .00004889  00000+0  23548-3 0  9990",
        "tle_line2": "2 42767  97.4536  57.6270 0002687 171.3626 188.7655 15.19204925471884"
      },
      "geometry": {
        "type": "Point",
        "coordinates": [
          -151.98267604099928,
          -75.23563265109902
        ]
      }
    },
    {
      "type": "Feature",
      "properties": {
        "norad_id": 42920,
        "name": "FORMOSAT-5",
        "group": "resource",
        "lat": -13.066406039438094,
        "lon": -107.488297723117,
        "alt_km": 724.3252342152246,
        "timestamp": "2025-12-26T09:30:53.285407+00:00",
        "meta_object_name": "FORMOSAT-5",
        "meta_object_id": "2017-049A",
        "meta_epoch": "2025-12-26T03:39:38.810592",
        "meta_mean_motion": 14.50768092,
        "meta_eccentricity": 0.0009852,
        "meta_inclination": 98.2437,
        "meta_ra_of_asc_node": 74.201,
        "meta_arg_of_pericenter": 255.5626,
        "meta_mean_anomaly": 104.4476,
        "meta_ephemeris_type": 0,
        "meta_classification_type": "U",
        "meta_norad_cat_id": 42920,
        "meta_element_set_no": 999,
        "meta_rev_at_epoch": 44158,
        "meta_bstar": 6.9638e-05,
        "meta_mean_motion_dot": 2.3e-06,
        "meta_mean_motion_ddot": 0,
        "tle_line1": "1 42920U 17049A   25360.15253253  .00000230  00000+0  69638-4 0  9990",
        "tle_line2": "2 42920  98.2437  74.2010 0009852 255.5626 104.4476 14.50768092441581"
      },
      "geometry": {
        "type": "Point",
        "coordinates": [
          -107.488297723117,
          -13.066406039438094
        ]
      }
    },
    {
      "type": "Feature",
      "properties": {
        "norad_id": 42969,
        "name": "SENTINEL-5P",
        "group": "resource",
        "lat": 47.16599840434576,
        "lon": 128.45664635792934,
        "alt_km": 822.1968154409396,
        "timestamp": "2025-12-26T09:30:53.285417+00:00",
        "meta_object_name": "SENTINEL-5P",
        "meta_object_id": "2017-064A",
        "meta_epoch": "2025-12-25T17:40:12.396576",
        "meta_mean_motion": 14.19520693,
        "meta_eccentricity": 0.00010643,
        "meta_inclination": 98.7802,
        "meta_ra_of_asc_node": 298.2061,
        "meta_arg_of_pericenter": 90.9871,
        "meta_mean_anomaly": 269.1427,
        "meta_ephemeris_type": 0,
        "meta_classification_type": "U",
        "meta_norad_cat_id": 42969,
        "meta_element_set_no": 999,
        "meta_rev_at_epoch": 42495,
        "meta_bstar": 6.8608624e-05,
        "meta_mean_motion_dot": 1e-06,
        "meta_mean_motion_ddot": 0,
        "tle_line1": "1 42969U 17064A   25359.73625459  .00000100  00000+0  68609-4 0  9996",
        "tle_line2": "2 42969  98.7802 298.2061 0001064  90.9871 269.1427 14.19520693424954"
      },
      "geometry": {
        "type": "Point",
        "coordinates": [
          128.45664635792934,
          47.16599840434576
        ]
      }
    },
    {
      "type": "Feature",
      "properties": {
        "norad_id": 42987,
        "name": "SKYSAT-C11",
        "group": "resource",
        "lat": 57.735981943327744,
        "lon": 126.32560622056367,
        "alt_km": 416.3199764694509,
        "timestamp": "2025-12-26T09:30:53.285427+00:00",
        "meta_object_name": "SKYSAT-C11",
        "meta_object_id": "2017-068A",
        "meta_epoch": "2025-12-25T22:24:11.990304",
        "meta_mean_motion": 15.48016298,
        "meta_eccentricity": 0.0001155,
        "meta_inclination": 97.4151,
        "meta_ra_of_asc_node": 137.7566,
        "meta_arg_of_pericenter": 96.2263,
        "meta_mean_anomaly": 263.9118,
        "meta_ephemeris_type": 0,
        "meta_classification_type": "U",
        "meta_norad_cat_id": 42987,
        "meta_element_set_no": 999,
        "meta_rev_at_epoch": 45635,
        "meta_bstar": 0.00044195,
        "meta_mean_motion_dot": 0.00023051,
        "meta_mean_motion_ddot": 0,
        "tle_line1": "1 42987U 17068A   25359.93347211  .00023051  00000+0  44195-3 0  9992",
        "tle_line2": "2 42987  97.4151 137.7566 0001155  96.2263 263.9118 15.48016298456351"
      },
      "geometry": {
        "type": "Point",
        "coordinates": [
          126.32560622056367,
          57.735981943327744
        ]
      }
    },
    {
      "type": "Feature",
      "properties": {
        "norad_id": 42988,
        "name": "SKYSAT-C10",
        "group": "resource",
        "lat": 81.23377164564732,
        "lon": 9.062344805173932,
        "alt_km": 459.4169902092872,
        "timestamp": "2025-12-26T09:30:53.285437+00:00",
        "meta_object_name": "SKYSAT-C10",
        "meta_object_id": "2017-068B",
        "meta_epoch": "2025-12-24T19:29:00.783168",
        "meta_mean_motion": 15.32071049,
        "meta_eccentricity": 0.00043105,
        "meta_inclination": 97.4272,
        "meta_ra_of_asc_node": 129.6977,
        "meta_arg_of_pericenter": 75.127,
        "meta_mean_anomaly": 285.0448,
        "meta_ephemeris_type": 0,
        "meta_classification_type": "U",
        "meta_norad_cat_id": 42988,
        "meta_element_set_no": 999,
        "meta_rev_at_epoch": 45564,
        "meta_bstar": 0.00040464637,
        "meta_mean_motion_dot": 0.00012461,
        "meta_mean_motion_ddot": 0,
        "tle_line1": "1 42988U 17068B   25358.81181462  .00012461  00000+0  40465-3 0  9992",
        "tle_line2": "2 42988  97.4272 129.6977 0004310  75.1270 285.0448 15.32071049455642"
      },
      "geometry": {
        "type": "Point",
        "coordinates": [
          9.062344805173932,
          81.23377164564732
        ]
      }
    }
  ]
}